{
  "norad_id": 64115,
  "name": "STARLINK-34067",
  "history": [
    {
      "epoch": "2026-03-28T21:07:09.831360Z",
      "apogee_km": 475.9338628240175,
      "perigee_km": 474.54797274148405,
      "latitude_deg": 1.8264376207809066e-05,
      "longitude_deg": 154.3214708500116,
      "height_km": 475.8482630072125,
      "semi_major_axis_km": 6853.377917782751,
      "eccentricity": 0.00010111,
      "inclination_deg": 53.1591,
      "raan_deg": 297.4065,
      "arg_perigee_deg": 65.159,
      "mean_anomaly_deg": 294.9516,
      "mean_motion_rev_day": 15.30191343
    },
    {
      "epoch": "2026-03-29T23:46:04.124064Z",
      "apogee_km": 475.870848269642,
      "perigee_km": 474.544863106963,
      "latitude_deg": 2.961004253891948e-05,
      "longitude_deg": 108.34344865922057,
      "height_km": 475.9117985694069,
      "semi_major_axis_km": 6853.344855688302,
      "eccentricity": 9.674e-05,
      "inclination_deg": 53.1584,
      "raan_deg": 292.2491,
      "arg_perigee_deg": 72.9471,
      "mean_anomaly_deg": 287.1636,
      "mean_motion_rev_day": 15.30202416
    },
    {
      "epoch": "2026-03-30T13:52:32.865888Z",
      "apogee_km": 475.69457548944047,
      "perigee_km": 474.59805015938855,
      "latitude_deg": 2.0981911984029494e-06,
      "longitude_deg": -106.58652307473331,
      "height_km": 475.6176042837762,
      "semi_major_axis_km": 6853.283312824414,
      "eccentricity": 8e-05,
      "inclination_deg": 53.1579,
      "raan_deg": 289.5183,
      "arg_perigee_deg": 38.7488,
      "mean_anomaly_deg": 321.357,
      "mean_motion_rev_day": 15.30223028
    },
    {
      "epoch": "2026-03-30T20:08:45.687552Z",
      "apogee_km": 475.8642252229083,
      "perigee_km": 474.5160387095084,
      "latitude_deg": -1.0047053578629806e-05,
      "longitude_deg": 157.88883545410545,
      "height_km": 476.0417873688751,
      "semi_major_axis_km": 6853.327131966208,
      "eccentricity": 9.836e-05,
      "inclination_deg": 53.1577,
      "raan_deg": 288.3046,
      "arg_perigee_deg": 86.0387,
      "mean_anomaly_deg": 274.0726,
      "mean_motion_rev_day": 15.30208352
    },
    {
      "epoch": "2026-03-31T13:23:20.838912Z",
      "apogee_km": 475.88992366768343,
      "perigee_km": 474.46662715128605,
      "latitude_deg": 4.8332625964662514e-05,
      "longitude_deg": -104.80503293336353,
      "height_km": 475.91144008434617,
      "semi_major_axis_km": 6853.3152754094845,
      "eccentricity": 0.00010384,
      "inclination_deg": 53.1575,
      "raan_deg": 284.9653,
      "arg_perigee_deg": 76.5941,
      "mean_anomaly_deg": 283.5176,
      "mean_motion_rev_day": 15.30212323
    },
    {
      "epoch": "2026-04-01T19:10:21.709632Z",
      "apogee_km": 475.58314929648986,
      "perigee_km": 474.74293471133933,
      "latitude_deg": 2.6724645235722938e-05,
      "longitude_deg": 161.45525660141755,
      "height_km": 475.86558366008035,
      "semi_major_axis_km": 6853.300042003914,
      "eccentricity": 6.13e-05,
      "inclination_deg": 53.1582,
      "raan_deg": 279.2024,
      "arg_perigee_deg": 298.0582,
      "mean_anomaly_deg": 62.0357,
      "mean_motion_rev_day": 15.30217425
    },
    {
      "epoch": "2026-04-02T20:15:13.092192Z",
      "apogee_km": 475.89908037455643,
      "perigee_km": 474.34887274165794,
      "latitude_deg": 1.1593923782091184e-05,
      "longitude_deg": 139.35821457466903,
      "height_km": 475.9449960348643,
      "semi_major_axis_km": 6853.260976558106,
      "eccentricity": 0.0001131,
      "inclination_deg": 53.1635,
      "raan_deg": 274.3495,
      "arg_perigee_deg": 275.949,
      "mean_anomaly_deg": 84.1382,
      "mean_motion_rev_day": 15.30230509
    },
    {
      "epoch": "2026-04-02T21:49:16.112928Z",
      "apogee_km": 475.64673158179266,
      "perigee_km": 474.53609738494106,
      "latitude_deg": 6.6238054651352125e-06,
      "longitude_deg": 115.4770493441605,
      "height_km": 475.97953518072217,
      "semi_major_axis_km": 6853.228414483367,
      "eccentricity": 8.103e-05,
      "inclination_deg": 53.1609,
      "raan_deg": 274.0453,
      "arg_perigee_deg": 271.3024,
      "mean_anomaly_deg": 88.7884,
      "mean_motion_rev_day": 15.30241415
    },
    {
      "epoch": "2026-04-03T19:46:01.727040Z",
      "apogee_km": 475.8582385841037,
      "perigee_km": 474.4574251204731,
      "latitude_deg": 7.658636441393e-05,
      "longitude_deg": 141.13665231910772,
      "height_km": 475.8808501565858,
      "semi_major_axis_km": 6853.294831852289,
      "eccentricity": 0.0001022,
      "inclination_deg": 53.1584,
      "raan_deg": 269.7962,
      "arg_perigee_deg": 75.5088,
      "mean_anomaly_deg": 284.6027,
      "mean_motion_rev_day": 15.3021917
    },
    {
      "epoch": "2026-04-04T17:42:45.244224Z",
      "apogee_km": 475.9377800220036,
      "perigee_km": 474.4930933283513,
      "latitude_deg": 1.2203495525777691e-05,
      "longitude_deg": 166.80661559976937,
      "height_km": 475.7593379988371,
      "semi_major_axis_km": 6853.352436675177,
      "eccentricity": 0.0001054,
      "inclination_deg": 53.1599,
      "raan_deg": 265.5488,
      "arg_perigee_deg": 60.5963,
      "mean_anomaly_deg": 299.5143,
      "mean_motion_rev_day": 15.30199877
    },
    {
      "epoch": "2026-04-05T10:57:21.245760Z",
      "apogee_km": 476.0189978949984,
      "perigee_km": 474.35364032845337,
      "latitude_deg": 3.851044222068543e-05,
      "longitude_deg": -95.88583082162698,
      "height_km": 475.93074161212746,
      "semi_major_axis_km": 6853.323319111725,
      "eccentricity": 0.0001215,
      "inclination_deg": 53.1603,
      "raan_deg": 262.2145,
      "arg_perigee_deg": 79.3568,
      "mean_anomaly_deg": 280.757,
      "mean_motion_rev_day": 15.30209629
    }
  ]
}